NORAD_CAT_ID,OBJECT_NAME,OBJECT_TYPE,EPOCH,MEAN_MOTION,ECCENTRICITY,INCLINATION,RA_OF_ASC_NODE,ARG_OF_PERICENTER,MEAN_ANOMALY,BSTAR,MEAN_MOTION_DOT,MEAN_MOTION_DDOT,TLE_LINE0,TLE_LINE1,TLE_LINE2,SEMIMAJOR_AXIS,PERIOD,APOGEE,PERIGEE,DECAYED
55917.0,STARLINK-5855,PAYLOAD,2023-11-25 05:00:26,15.02632548,0.0003229,70.0008,250.0591,286.4432,73.6374,0.0026067,0.00034882,0.0,0 STARLINK-5855,1 55917U 23037D   23329.20864191  .00034882  00000-0  26067-2 0  9990,2 55917  70.0008 250.0591 0003229 286.4432  73.6374 15.02632548 38367,6936.919,95.832,561.024,556.544,0.0
55917.0,STARLINK-5855,PAYLOAD,2023-11-25 22:34:52,15.02716679,0.0003202,70.001,248.2005,285.2859,74.7948,0.005167,0.00069736,0.0,0 STARLINK-5855,1 55917U 23037D   23329.94088401  .00069736  00000-0  51670-2 0  9997,2 55917  70.0010 248.2005 0003202 285.2859  74.7948 15.02716679 38479,6936.66,95.826,560.747,556.304,0.0
55917.0,STARLINK-5855,PAYLOAD,2023-11-26 03:22:26,15.02736059,0.0003144,70.0011,247.6935,286.9198,73.1619,0.0048822,0.00065884,0.0,0 STARLINK-5855,1 55917U 23037D   23330.14057933  .00065884  00000-0  48822-2 0  9992,2 55917  70.0011 247.6935 0003144 286.9198  73.1619 15.02736059 38847,6936.601,95.825,560.647,556.285,0.0
55917.0,STARLINK-5855,PAYLOAD,2023-11-26 04:58:17,15.02718786,0.0003185,70.0009,247.5249,285.642,74.439,0.0028726,0.00038558,0.0,0 STARLINK-5855,1 55917U 23037D   23330.20714550  .00038558  00000-0  28726-2 0  9993,2 55917  70.0009 247.5249 0003185 285.6420  74.4390 15.02718786 38858,6936.654,95.826,560.728,556.31,0.0
55917.0,STARLINK-5855,PAYLOAD,2023-11-26 22:32:39,15.02767509,0.0003077,70.001,245.6657,284.6586,75.4234,0.0017718,0.00023725,0.0,0 STARLINK-5855,1 55917U 23037D   23330.93934593  .00023725  00000-0  17718-2 0  9993,2 55917  70.0010 245.6657 0003077 284.6586  75.4234 15.02767509 38624,6936.504,95.823,560.503,556.235,0.0
55917.0,STARLINK-5855,PAYLOAD,2023-11-27 04:56:03,15.02784985,0.0003042,70.0011,244.9899,285.3181,74.7644,0.0018381,0.00024631,0.0,0 STARLINK-5855,1 55917U 23037D   23331.20559528  .00024631  00000-0  18381-2 0  9999,2 55917  70.0011 244.9899 0003042 285.3181  74.7644 15.02784985 39003,6936.45,95.822,560.425,556.205,0.0
55917.0,STARLINK-5855,PAYLOAD,2023-11-27 20:54:32,15.02828448,0.0003015,70.001,243.3002,285.7019,74.381,0.0021468,0.00028835,0.0,0 STARLINK-5855,1 55917U 23037D   23331.87120622  .00028835  00000-0  21468-2 0  9991,2 55917  70.0010 243.3002 0003015 285.7019  74.3810 15.02828448 38761,6936.317,95.819,560.273,556.09,0.0
55917.0,STARLINK-5855,PAYLOAD,2023-11-28 01:42:04,15.02839988,0.0002978,70.0009,242.7932,284.6861,75.397,0.0021809,0.00029305,0.0,0 STARLINK-5855,1 55917U 23037D   23332.07088605  .00029305  00000-0  21809-2 0  9990,2 55917  70.0009 242.7932 0002978 284.6861  75.3970 15.02839988 39135,6936.281,95.819,560.212,556.08,0.0
55917.0,STARLINK-5855,PAYLOAD,2023-11-28 03:17:55,15.02845548,0.0002955,70.0009,242.6243,283.8675,76.2158,0.0022673,0.00030479,0.0,0 STARLINK-5855,1 55917U 23037D   23332.13744535  .00030479  00000-0  22673-2 0  9992,2 55917  70.0009 242.6243 0002955 283.8675  76.2158 15.02845548 38808,6936.264,95.818,560.179,556.079,0.0
55917.0,STARLINK-5855,PAYLOAD,2023-11-28 19:16:21,15.02887332,0.0002986,70.0009,240.9343,285.0897,74.9934,0.0021529,0.00028963,0.0,0 STARLINK-5855,1 55917U 23037D   23332.80303038  .00028963  00000-0  21529-2 0  9999,2 55917  70.0009 240.9343 0002986 285.0897  74.9934 15.02887332 38909,6936.135,95.816,560.071,555.929,0.0
55917.0,STARLINK-5855,PAYLOAD,2023-11-29 03:15:34,15.02909477,0.0002942,70.0009,240.0892,283.5462,76.5371,0.0022901,0.00030841,0.0,0 STARLINK-5855,1 55917U 23037D   23333.13581548  .00030841  00000-0  22901-2 0  9993,2 55917  70.0009 240.0892 0002942 283.5462  76.5371 15.02909477 39293,6936.067,95.814,559.973,555.892,0.0
55917.0,STARLINK-5855,PAYLOAD,2023-11-29 04:51:24,15.02913707,0.0002963,70.0008,239.9203,283.9267,76.1565,0.0022477,0.00030269,0.0,0 STARLINK-5855,1 55917U 23037D   23333.20237192  .00030269  00000-0  22477-2 0  9996,2 55917  70.0008 239.9203 0002963 283.9267  76.1565 15.02913707 38960,6936.054,95.814,559.974,555.864,0.0
55917.0,STARLINK-5855,PAYLOAD,2023-11-29 19:14:00,15.02908949,0.0002119,70.0007,238.3984,237.8512,122.2444,0.0015855,0.00021292,0.0,0 STARLINK-5855,1 55917U 23037D   23333.80139195  .00021292  00000-0  15855-2 0  9994,2 55917  70.0007 238.3984 0002119 237.8512 122.2444 15.02908949 39391,6936.069,95.814,559.404,556.464,0.0
55917.0,STARLINK-5855,PAYLOAD,2023-11-30 03:13:13,15.02887256,0.0002921,70.0005,237.5539,283.499,76.5846,0.0019487,0.00026196,0.0,0 STARLINK-5855,1 55917U 23037D   23334.13418597  .00026196  00000-0  19487-2 0  9990,2 55917  70.0005 237.5539 0002921 283.4990  76.5846 15.02887256 39444,6936.136,95.816,560.027,555.975,0.0
55917.0,STARLINK-5855,PAYLOAD,2023-12-01 19:09:13,15.02987716,0.000301,70.0002,233.3287,282.3529,77.7295,0.0026211,0.00035409,0.0,0 STARLINK-5855,1 55917U 23037D   23335.79807751  .00035409  00000-0  26211-2 0  9997,2 55917  70.0002 233.3287 0003010 282.3529  77.7295 15.02987716 39691,6935.826,95.809,559.779,555.604,0.0
55917.0,STARLINK-5855,PAYLOAD,2023-12-01 22:20:54,15.02998661,0.0002537,70.0001,232.9903,272.1802,87.9069,0.0026521,0.0003584,0.0,0 STARLINK-5855,1 55917U 23037D   23335.93118235  .00035840  00000-0  26521-2 0  9998,2 55917  70.0001 232.9903 0002537 272.1802  87.9069 15.02998661 39372,6935.793,95.808,559.417,555.898,0.0
55917.0,STARLINK-5855,PAYLOAD,2023-12-02 03:08:24,15.03035097,0.0002558,70.0015,232.4851,301.0678,59.0233,0.0046339,0.00062998,0.0,0 STARLINK-5855,1 55917U 23037D   23336.13084283  .00062998  00000-0  46339-2 0  9999,2 55917  70.0015 232.4851 0002558 301.0678  59.0233 15.03035097 39740,6935.681,95.806,559.32,555.772,0.0
55917.0,STARLINK-5855,PAYLOAD,2023-12-02 19:06:43,15.03065815,0.000321,70.0004,230.7934,284.5321,75.5485,0.0016558,0.00022338,0.0,0 STARLINK-5855,1 55917U 23037D   23336.79634090  .00022338  00000-0  16558-2 0  9992,2 55917  70.0004 230.7934 0003210 284.5321  75.5485 15.03065815 39841,6935.586,95.804,559.678,555.225,0.0
55917.0,STARLINK-5855,PAYLOAD,2023-12-02 22:18:23,15.03072342,0.0002366,70.0011,230.4572,251.2117,108.8788,0.0015106,0.00020367,0.0,0 STARLINK-5855,1 55917U 23037D   23336.92943726  .00020367  00000-0  15106-2 0  9994,2 55917  70.0011 230.4572 0002366 251.2117 108.8788 15.03072342 39523,6935.566,95.804,559.072,555.79,0.0
55917.0,STARLINK-5855,PAYLOAD,2023-12-03 03:05:53,15.03078255,0.0002625,70.0005,229.9483,287.1134,72.974,0.0011314,0.00015222,0.0,0 STARLINK-5855,1 55917U 23037D   23337.12908662  .00015222  00000-0  11314-2 0  9998,2 55917  70.0005 229.9483 0002625 287.1134  72.9740 15.03078255 39556,6935.548,95.803,559.234,555.592,0.0
55917.0,STARLINK-5855,PAYLOAD,2023-12-03 20:40:00,15.03112271,0.0003022,69.9999,228.0886,281.739,78.3432,0.0013448,0.00018135,0.0,0 STARLINK-5855,1 55917U 23037D   23337.86111575  .00018135  00000-0  13448-2 0  9994,2 55917  69.9999 228.0886 0003022 281.7390  78.3432 15.03112271 40005,6935.443,95.801,559.404,555.212,0.0
55917.0,STARLINK-5855,PAYLOAD,2023-12-04 03:03:19,15.03121777,0.0002873,69.9997,227.412,282.3898,77.6942,0.0013129,0.00017706,0.0,0 STARLINK-5855,1 55917U 23037D   23338.12730526  .00017706  00000-0  13129-2 0  9996,2 55917  69.9997 227.4120 0002873 282.3898  77.6942 15.03121777 39704,6935.414,95.801,559.272,555.287,0.0
55917.0,STARLINK-5855,PAYLOAD,2023-12-04 15:49:56,15.03141111,0.0002834,69.9997,226.0597,281.1029,78.9814,0.0013509,0.00018232,0.0,0 STARLINK-5855,1 55917U 23037D   23338.65967989  .00018232  00000-0  13509-2 0  9996,2 55917  69.9997 226.0597 0002834 281.1029  78.9814 15.03141111 39781,6935.355,95.799,559.185,555.254,0.0
55917.0,STARLINK-5855,PAYLOAD,2023-12-05 03:00:43,15.03155537,0.0002829,69.9996,224.8766,281.4103,78.674,0.0012272,0.00016556,0.0,0 STARLINK-5855,1 55917U 23037D   23339.12550233  .00016556  00000-0  12272-2 0  9992,2 55917  69.9996 224.8766 0002829 281.4103  78.6740 15.03155537 40193,6935.31,95.798,559.137,555.213,0.0
55917.0,STARLINK-5855,PAYLOAD,2023-12-06 02:58:05,15.03187379,0.0002771,69.9997,222.3408,279.9333,80.1516,0.0011274,0.00015212,0.0,0 STARLINK-5855,1 55917U 23037D   23340.12367719  .00015212  00000-0  11274-2 0  9998,2 55917  69.9997 222.3408 0002771 279.9333  80.1516 15.03187379 40001,6935.212,95.796,558.999,555.156,0.0
55917.0,STARLINK-5855,PAYLOAD,2023-12-06 22:07:58,15.03208148,0.0002536,70.0008,220.3127,312.8826,47.2122,0.00095063,0.00012814,0.0,0 STARLINK-5855,1 55917U 23037D   23340.92220829  .00012814  00000-0  95063-3 0  9990,2 55917  70.0008 220.3127 0002536 312.8826  47.2122 15.03208148 40124,6935.148,95.795,558.772,555.255,0.0
55917.0,STARLINK-5855,PAYLOAD,2023-12-07 01:19:37,15.03212407,0.0002512,70.0,219.974,289.1293,70.9596,0.00097163,0.00013101,0.0,0 STARLINK-5855,1 55917U 23037D   23341.05529157  .00013101  00000-0  97163-3 0  9994,2 55917  70.0000 219.9740 0002512 289.1293  70.9596 15.03212407 40489,6935.135,95.795,558.742,555.258,0.0
55917.0,STARLINK-5855,PAYLOAD,2023-12-08 01:16:57,15.03230189,0.0002605,70.001,217.4393,317.159,42.9368,0.00072241,9.716e-05,0.0,0 STARLINK-5855,1 55917U 23037D   23342.05343853  .00009716  00000-0  72241-3 0  9999,2 55917  70.0010 217.4393 0002605 317.1590  42.9368 15.03230189 40632,6935.081,95.794,558.752,555.139,0.0
55917.0,STARLINK-5855,PAYLOAD,2023-12-08 15:39:19,15.03240428,0.0002473,69.9999,215.9174,279.6857,80.4025,0.00068348,9.189e-05,0.0,0 STARLINK-5855,1 55917U 23037D   23342.65231372  .00009189  00000-0  68348-3 0  9994,2 55917  69.9999 215.9174 0002473 279.6857  80.4025 15.03240428 40382,6935.049,95.793,558.629,555.199,0.0
55917.0,STARLINK-5855,PAYLOAD,2023-12-10 18:45:33,15.03270645,0.0002675,69.9995,210.5056,282.2672,77.819,0.00054733,7.343e-05,0.0,0 STARLINK-5855,1 55917U 23037D   23344.78163594  .00007343  00000-0  54733-3 0  9993,2 55917  69.9995 210.5056 0002675 282.2672  77.8190 15.03270645 41048,6934.956,95.791,558.676,554.966,0.0
